<?xml version="1.0" encoding="UTF-8"?>
<ndm xmlns:xsi="http://www.w3.org/2001/XMLSchema-instance" xsi:noNamespaceSchemaLocation="https://sanaregistry.org/r/ndmxml_unqualified/ndmxml-2.0.0-master-2.0.xsd">
<omm id="CCSDS_OMM_VERS" version="2.0">
<header><CREATION_DATE/><ORIGINATOR/></header><body><segment><metadata><OBJECT_NAME>KUIPER-00136</OBJECT_NAME><OBJECT_ID>2025-228R</OBJECT_ID><CENTER_NAME>EARTH</CENTER_NAME><REF_FRAME>TEME</REF_FRAME><TIME_SYSTEM>UTC</TIME_SYSTEM><MEAN_ELEMENT_THEORY>SGP4</MEAN_ELEMENT_THEORY></metadata><data><meanElements><EPOCH>2025-12-01T06:06:03.204000</EPOCH><MEAN_MOTION>15.35909818</MEAN_MOTION><ECCENTRICITY>.00057945</ECCENTRICITY><INCLINATION>51.8793</INCLINATION><RA_OF_ASC_NODE>75.8277</RA_OF_ASC_NODE><ARG_OF_PERICENTER>318.1766</ARG_OF_PERICENTER><MEAN_ANOMALY>41.8777</MEAN_ANOMALY></meanElements><tleParameters><EPHEMERIS_TYPE>0</EPHEMERIS_TYPE><CLASSIFICATION_TYPE>U</CLASSIFICATION_TYPE><NORAD_CAT_ID>65962</NORAD_CAT_ID><ELEMENT_SET_NO>999</ELEMENT_SET_NO><REV_AT_EPOCH>865</REV_AT_EPOCH><BSTAR>.12881802E-2</BSTAR><MEAN_MOTION_DOT>.4563E-3</MEAN_MOTION_DOT><MEAN_MOTION_DDOT>0</MEAN_MOTION_DDOT></tleParameters></data></segment></body></omm>
<omm id="CCSDS_OMM_VERS" version="2.0">
<header><CREATION_DATE/><ORIGINATOR/></header><body><segment><metadata><OBJECT_NAME>KUIPER-00137</OBJECT_NAME><OBJECT_ID>2025-228S</OBJECT_ID><CENTER_NAME>EARTH</CENTER_NAME><REF_FRAME>TEME</REF_FRAME><TIME_SYSTEM>UTC</TIME_SYSTEM><MEAN_ELEMENT_THEORY>SGP4</MEAN_ELEMENT_THEORY></metadata><data><meanElements><EPOCH>2025-12-01T06:26:25.479744</EPOCH><MEAN_MOTION>15.35238706</MEAN_MOTION><ECCENTRICITY>.00064691</ECCENTRICITY><INCLINATION>51.8795</INCLINATION><RA_OF_ASC_NODE>75.9220</RA_OF_ASC_NODE><ARG_OF_PERICENTER>342.5919</ARG_OF_PERICENTER><MEAN_ANOMALY>17.4844</MEAN_ANOMALY></meanElements><tleParameters><EPHEMERIS_TYPE>0</EPHEMERIS_TYPE><CLASSIFICATION_TYPE>U</CLASSIFICATION_TYPE><NORAD_CAT_ID>65963</NORAD_CAT_ID><ELEMENT_SET_NO>999</ELEMENT_SET_NO><REV_AT_EPOCH>865</REV_AT_EPOCH><BSTAR>.13258977E-2</BSTAR><MEAN_MOTION_DOT>.4598E-3</MEAN_MOTION_DOT><MEAN_MOTION_DDOT>0</MEAN_MOTION_DDOT></tleParameters></data></segment></body></omm>
<omm id="CCSDS_OMM_VERS" version="2.0">
<header><CREATION_DATE/><ORIGINATOR/></header><body><segment><metadata><OBJECT_NAME>KUIPER-00138</OBJECT_NAME><OBJECT_ID>2025-228T</OBJECT_ID><CENTER_NAME>EARTH</CENTER_NAME><REF_FRAME>TEME</REF_FRAME><TIME_SYSTEM>UTC</TIME_SYSTEM><MEAN_ELEMENT_THEORY>SGP4</MEAN_ELEMENT_THEORY></metadata><data><meanElements><EPOCH>2025-11-30T13:20:51.429120</EPOCH><MEAN_MOTION>15.35231309</MEAN_MOTION><ECCENTRICITY>.0007538</ECCENTRICITY><INCLINATION>51.8804</INCLINATION><RA_OF_ASC_NODE>79.3883</RA_OF_ASC_NODE><ARG_OF_PERICENTER>332.1580</ARG_OF_PERICENTER><MEAN_ANOMALY>27.9002</MEAN_ANOMALY></meanElements><tleParameters><EPHEMERIS_TYPE>0</EPHEMERIS_TYPE><CLASSIFICATION_TYPE>U</CLASSIFICATION_TYPE><NORAD_CAT_ID>65964</NORAD_CAT_ID><ELEMENT_SET_NO>999</ELEMENT_SET_NO><REV_AT_EPOCH>854</REV_AT_EPOCH><BSTAR>.12316E-2</BSTAR><MEAN_MOTION_DOT>.42664E-3</MEAN_MOTION_DOT><MEAN_MOTION_DDOT>0</MEAN_MOTION_DDOT></tleParameters></data></segment></body></omm>
<omm id="CCSDS_OMM_VERS" version="2.0">
<header><CREATION_DATE/><ORIGINATOR/></header><body><segment><metadata><OBJECT_NAME>KUIPER-00140</OBJECT_NAME><OBJECT_ID>2025-228U</OBJECT_ID><CENTER_NAME>EARTH</CENTER_NAME><REF_FRAME>TEME</REF_FRAME><TIME_SYSTEM>UTC</TIME_SYSTEM><MEAN_ELEMENT_THEORY>SGP4</MEAN_ELEMENT_THEORY></metadata><data><meanElements><EPOCH>2025-11-30T11:53:29.162688</EPOCH><MEAN_MOTION>15.34728200</MEAN_MOTION><ECCENTRICITY>.00071921</ECCENTRICITY><INCLINATION>51.8802</INCLINATION><RA_OF_ASC_NODE>79.7350</RA_OF_ASC_NODE><ARG_OF_PERICENTER>330.3365</ARG_OF_PERICENTER><MEAN_ANOMALY>29.7212</MEAN_ANOMALY></meanElements><tleParameters><EPHEMERIS_TYPE>0</EPHEMERIS_TYPE><CLASSIFICATION_TYPE>U</CLASSIFICATION_TYPE><NORAD_CAT_ID>65965</NORAD_CAT_ID><ELEMENT_SET_NO>999</ELEMENT_SET_NO><REV_AT_EPOCH>853</REV_AT_EPOCH><BSTAR>.13837866E-2</BSTAR><MEAN_MOTION_DOT>.4724E-3</MEAN_MOTION_DOT><MEAN_MOTION_DDOT>0</MEAN_MOTION_DDOT></tleParameters></data></segment></body></omm>
<omm id="CCSDS_OMM_VERS" version="2.0">
<header><CREATION_DATE/><ORIGINATOR/></header><body><segment><metadata><OBJECT_NAME>KUIPER-00141</OBJECT_NAME><OBJECT_ID>2025-228V</OBJECT_ID><CENTER_NAME>EARTH</CENTER_NAME><REF_FRAME>TEME</REF_FRAME><TIME_SYSTEM>UTC</TIME_SYSTEM><MEAN_ELEMENT_THEORY>SGP4</MEAN_ELEMENT_THEORY></metadata><data><meanElements><EPOCH>2025-11-30T16:08:07.491552</EPOCH><MEAN_MOTION>15.35818031</MEAN_MOTION><ECCENTRICITY>.00060347</ECCENTRICITY><INCLINATION>51.8785</INCLINATION><RA_OF_ASC_NODE>78.6690</RA_OF_ASC_NODE><ARG_OF_PERICENTER>323.1101</ARG_OF_PERICENTER><MEAN_ANOMALY>36.9469</MEAN_ANOMALY></meanElements><tleParameters><EPHEMERIS_TYPE>0</EPHEMERIS_TYPE><CLASSIFICATION_TYPE>U</CLASSIFICATION_TYPE><NORAD_CAT_ID>65966</NORAD_CAT_ID><ELEMENT_SET_NO>999</ELEMENT_SET_NO><REV_AT_EPOCH>856</REV_AT_EPOCH><BSTAR>.80172532E-3</BSTAR><MEAN_MOTION_DOT>.28104E-3</MEAN_MOTION_DOT><MEAN_MOTION_DDOT>0</MEAN_MOTION_DDOT></tleParameters></data></segment></body></omm>
<omm id="CCSDS_OMM_VERS" version="2.0">
<header><CREATION_DATE/><ORIGINATOR/></header><body><segment><metadata><OBJECT_NAME>KUIPER-00146</OBJECT_NAME><OBJECT_ID>2025-228W</OBJECT_ID><CENTER_NAME>EARTH</CENTER_NAME><REF_FRAME>TEME</REF_FRAME><TIME_SYSTEM>UTC</TIME_SYSTEM><MEAN_ELEMENT_THEORY>SGP4</MEAN_ELEMENT_THEORY></metadata><data><meanElements><EPOCH>2025-11-30T16:18:03.479616</EPOCH><MEAN_MOTION>15.35291171</MEAN_MOTION><ECCENTRICITY>.00064163</ECCENTRICITY><INCLINATION>51.8806</INCLINATION><RA_OF_ASC_NODE>78.7227</RA_OF_ASC_NODE><ARG_OF_PERICENTER>325.5679</ARG_OF_PERICENTER><MEAN_ANOMALY>34.4891</MEAN_ANOMALY></meanElements><tleParameters><EPHEMERIS_TYPE>0</EPHEMERIS_TYPE><CLASSIFICATION_TYPE>U</CLASSIFICATION_TYPE><NORAD_CAT_ID>65967</NORAD_CAT_ID><ELEMENT_SET_NO>999</ELEMENT_SET_NO><REV_AT_EPOCH>856</REV_AT_EPOCH><BSTAR>.60541598E-3</BSTAR><MEAN_MOTION_DOT>.20751E-3</MEAN_MOTION_DOT><MEAN_MOTION_DDOT>0</MEAN_MOTION_DDOT></tleParameters></data></segment></body></omm>
<omm id="CCSDS_OMM_VERS" version="2.0">
<header><CREATION_DATE/><ORIGINATOR/></header><body><segment><metadata><OBJECT_NAME>KUIPER-00149</OBJECT_NAME><OBJECT_ID>2025-228X</OBJECT_ID><CENTER_NAME>EARTH</CENTER_NAME><REF_FRAME>TEME</REF_FRAME><TIME_SYSTEM>UTC</TIME_SYSTEM><MEAN_ELEMENT_THEORY>SGP4</MEAN_ELEMENT_THEORY></metadata><data><meanElements><EPOCH>2025-12-01T06:05:40.622496</EPOCH><MEAN_MOTION>15.35949096</MEAN_MOTION><ECCENTRICITY>.00052048</ECCENTRICITY><INCLINATION>51.8797</INCLINATION><RA_OF_ASC_NODE>75.8213</RA_OF_ASC_NODE><ARG_OF_PERICENTER>318.8689</ARG_OF_PERICENTER><MEAN_ANOMALY>41.1904</MEAN_ANOMALY></meanElements><tleParameters><EPHEMERIS_TYPE>0</EPHEMERIS_TYPE><CLASSIFICATION_TYPE>U</CLASSIFICATION_TYPE><NORAD_CAT_ID>65968</NORAD_CAT_ID><ELEMENT_SET_NO>999</ELEMENT_SET_NO><REV_AT_EPOCH>865</REV_AT_EPOCH><BSTAR>.17974268E-2</BSTAR><MEAN_MOTION_DOT>.64052E-3</MEAN_MOTION_DOT><MEAN_MOTION_DDOT>0</MEAN_MOTION_DDOT></tleParameters></data></segment></body></omm>
<omm id="CCSDS_OMM_VERS" version="2.0">
<header><CREATION_DATE/><ORIGINATOR/></header><body><segment><metadata><OBJECT_NAME>KUIPER-00154</OBJECT_NAME><OBJECT_ID>2025-228Y</OBJECT_ID><CENTER_NAME>EARTH</CENTER_NAME><REF_FRAME>TEME</REF_FRAME><TIME_SYSTEM>UTC</TIME_SYSTEM><MEAN_ELEMENT_THEORY>SGP4</MEAN_ELEMENT_THEORY></metadata><data><meanElements><EPOCH>2025-11-30T16:06:11.776896</EPOCH><MEAN_MOTION>15.35490989</MEAN_MOTION><ECCENTRICITY>.00059312</ECCENTRICITY><INCLINATION>51.8789</INCLINATION><RA_OF_ASC_NODE>78.6635</RA_OF_ASC_NODE><ARG_OF_PERICENTER>319.8059</ARG_OF_PERICENTER><MEAN_ANOMALY>40.2488</MEAN_ANOMALY></meanElements><tleParameters><EPHEMERIS_TYPE>0</EPHEMERIS_TYPE><CLASSIFICATION_TYPE>U</CLASSIFICATION_TYPE><NORAD_CAT_ID>65969</NORAD_CAT_ID><ELEMENT_SET_NO>999</ELEMENT_SET_NO><REV_AT_EPOCH>856</REV_AT_EPOCH><BSTAR>.965923E-3</BSTAR><MEAN_MOTION_DOT>.33606E-3</MEAN_MOTION_DOT><MEAN_MOTION_DDOT>0</MEAN_MOTION_DDOT></tleParameters></data></segment></body></omm>

</ndm>
