KUIPER-00136            
1 65962U 25228R   25335.25420375  .00045630  00000+0  12882-2 0  9993
2 65962  51.8793  75.8277 0005794 318.1766  41.8777 15.35909818  8658
KUIPER-00137            
1 65963U 25228S   25335.26835046  .00045980  00000+0  13259-2 0  9997
2 65963  51.8795  75.9220 0006469 342.5919  17.4844 15.35238706  8656
KUIPER-00138            
1 65964U 25228T   25334.55615080  .00042664  00000+0  12316-2 0  9992
2 65964  51.8804  79.3883 0007538 332.1580  27.9002 15.35231309  8540
KUIPER-00140            
1 65965U 25228U   25334.49547642  .00047240  00000+0  13838-2 0  9999
2 65965  51.8802  79.7350 0007192 330.3365  29.7212 15.34728200  8531
KUIPER-00141            
1 65966U 25228V   25334.67230893  .00028104  00000+0  80173-3 0  9992
2 65966  51.8785  78.6690 0006034 323.1101  36.9469 15.35818031  8569
KUIPER-00146            
1 65967U 25228W   25334.67920694  .00020751  00000+0  60542-3 0  9996
2 65967  51.8806  78.7227 0006416 325.5679  34.4891 15.35291171  8563
KUIPER-00149            
1 65968U 25228X   25335.25394239  .00064052  00000+0  17974-2 0  9994
2 65968  51.8797  75.8213 0005204 318.8689  41.1904 15.35949096  8652
KUIPER-00154            
1 65969U 25228Y   25334.67096964  .00033606  00000+0  96592-3 0  9999
2 65969  51.8789  78.6635 0005931 319.8059  40.2488 15.35490989  8561
